{
    "satellites": [
        {
            "name": "starlink308",
            "title": "Starlink-308 (G11-17)",
            "tle": [
                "1 70445C 25225Z   25290.04354167 -.01890900  00000+0 -79180-2 0  2903",
                "2 70445  53.1517 119.8991 0000867  71.8612  72.3280 15.86797174    16"
            ],
            "stdMag": 5,
            "noradId": "70445",
            "tleUrl": "http://celestrak.org/NORAD/elements/supplemental/sup-gp.php?FILE=starlink&FORMAT=tle",
            "launchDate": "2025-10-08T03:54:00.000Z",
            "active": true,
            "batch": [
                {
                    "noradId": "70445",
                    "tle": [
                        "1 70445C 25225Z   25290.04354167 -.01890900  00000+0 -79180-2 0  2903",
                        "2 70445  53.1517 119.8991 0000867  71.8612  72.3280 15.86797174    16"
                    ]
                },
                {
                    "noradId": "70448",
                    "tle": [
                        "1 70448C 25225AC  25290.04493056 -.01899900  00000+0 -79533-2 0  2908",
                        "2 70448  53.1520 119.8883 0000972  71.3875  82.8171 15.86813150    14"
                    ]
                },
                {
                    "noradId": "70447",
                    "tle": [
                        "1 70447C 25225AB  25290.04770833 -.01881200  00000+0 -78888-2 0  2904",
                        "2 70447  53.1517 119.8827 0000857  80.6811  85.2928 15.86756764    16"
                    ]
                },
                {
                    "noradId": "70446",
                    "tle": [
                        "1 70446C 25225AA  25290.06645833 -.01866800  00000+0 -78542-2 0  2902",
                        "2 70446  53.1521 119.7933 0000605  82.5124 188.2541 15.86673492    17"
                    ]
                },
                {
                    "noradId": "70449",
                    "tle": [
                        "1 70449C 25225AD  25290.04562500 -.01909500  00000+0 -79883-2 0  2906",
                        "2 70449  53.1522 119.8814 0000867  77.3744  82.7995 15.86837040    12"
                    ]
                },
                {
                    "noradId": "70444",
                    "tle": [
                        "1 70444C 25225Y   25290.04909722 -.01842100  00000+0 -77256-2 0  2906",
                        "2 70444  53.1522 119.8862 0000927  86.4409  82.7227 15.86713844    19"
                    ]
                },
                {
                    "noradId": "70443",
                    "tle": [
                        "1 70443C 25225X   25290.04284722 -.01814100  00000+0 -76000-2 0  2906",
                        "2 70443  53.1517 119.9216 0000991  76.5698  54.4478 15.86707850    11"
                    ]
                },
                {
                    "noradId": "70441",
                    "tle": [
                        "1 70441C 25225V   25290.05118056 -.01790100  00000+0 -75107-2 0  2901",
                        "2 70441  53.1520 119.8856 0001022  77.2347  99.0386 15.86651401    10"
                    ]
                },
                {
                    "noradId": "70442",
                    "tle": [
                        "1 70442C 25225W   25290.04284722 -.01743100  00000+0 -73124-2 0  2900",
                        "2 70442  53.1518 119.9354 0000845  72.7157  51.6522 15.86605381    15"
                    ]
                },
                {
                    "noradId": "70439",
                    "tle": [
                        "1 70439C 25225T   25290.04701389 -.01721600  00000+0 -72314-2 0  2900",
                        "2 70439  53.1520 119.9191 0000884  70.6696  75.3248 15.86556331    19"
                    ]
                },
                {
                    "noradId": "70440",
                    "tle": [
                        "1 70440C 25225U   25290.04770833 -.01765200  00000+0 -74043-2 0  2907",
                        "2 70440  53.1518 119.9066 0000962  74.1504  80.0298 15.86630297    15"
                    ]
                },
                {
                    "noradId": "70438",
                    "tle": [
                        "1 70438C 25225S   25290.04493056 -.01674500  00000+0 -70421-2 0  2901",
                        "2 70438  53.1521 119.9394 0000963  74.9718  54.8068 15.86483282    10"
                    ]
                },
                {
                    "noradId": "70436",
                    "tle": [
                        "1 70436C 25225Q   25290.04909722 -.01661200  00000+0 -69982-2 0  2904",
                        "2 70436  53.1523 119.9231 0000931  73.6870  77.9369 15.86433334    13"
                    ]
                },
                {
                    "noradId": "70437",
                    "tle": [
                        "1 70437C 25225R   25290.04284722 -.01699600  00000+0 -71402-2 0  2906",
                        "2 70437  53.1523 119.9457 0000944  72.8153  47.2807 15.86530342    17"
                    ]
                },
                {
                    "noradId": "70435",
                    "tle": [
                        "1 70435C 25225P   25290.04354167 -.01634600  00000+0 -68826-2 0  2900",
                        "2 70435  53.1523 119.9556 0000842  84.8584  32.5927 15.86416505    17"
                    ]
                },
                {
                    "noradId": "70431",
                    "tle": [
                        "1 70431C 25225K   25290.04284722 -.01584000  00000+0 -66930-2 0  2907",
                        "2 70431  53.1524 119.9773 0000859  73.6455  31.3050 15.86290855    18"
                    ]
                },
                {
                    "noradId": "70433",
                    "tle": [
                        "1 70433C 25225M   25290.05395833 -.01606600  00000+0 -67884-2 0  2906",
                        "2 70433  53.1525 119.9122 0000882  73.5928  99.1806 15.86314575    16"
                    ]
                },
                {
                    "noradId": "70432",
                    "tle": [
                        "1 70432C 25225L   25290.06923611 -.01594200  00000+0 -67548-2 0  2906",
                        "2 70432  53.1524 119.8395 0000652  71.5025 186.1649 15.86243284    16"
                    ]
                },
                {
                    "noradId": "70434",
                    "tle": [
                        "1 70434C 25225N   25290.05118056 -.01618500  00000+0 -68275-2 0  2904",
                        "2 70434  53.1524 119.9218 0000936  71.0450  87.8118 15.86360831    11"
                    ]
                },
                {
                    "noradId": "70429",
                    "tle": [
                        "1 70429C 25225H   25290.04909722 -.01569100  00000+0 -66394-2 0  2906",
                        "2 70429  53.1527 119.9507 0000880  64.9441  73.2369 15.86245915    10"
                    ]
                },
                {
                    "noradId": "70430",
                    "tle": [
                        "1 70430C 25225J   25290.04770833 -.01561400  00000+0 -66117-2 0  2905",
                        "2 70430  53.1525 119.9621 0000962  70.7910  57.3477 15.86222232    14"
                    ]
                },
                {
                    "noradId": "70428",
                    "tle": [
                        "1 70428C 25225G   25290.05118056 -.01549800  00000+0 -65703-2 0  2906",
                        "2 70428  53.1525 119.9493 0001154  67.3924  78.2523 15.86186096    10"
                    ]
                },
                {
                    "noradId": "70424",
                    "tle": [
                        "1 70424C 25225C   25290.04562500 -.01521200  00000+0 -64687-2 0  2902",
                        "2 70424  53.1525 119.9946 0000870  67.9371  37.6648 15.86092846    11"
                    ]
                },
                {
                    "noradId": "70427",
                    "tle": [
                        "1 70427C 25225F   25290.04631944 -.01545900  00000+0 -65581-2 0  2901",
                        "2 70427  53.1527 119.9788 0000789  78.6730  37.3768 15.86169153    13"
                    ]
                },
                {
                    "noradId": "70423",
                    "tle": [
                        "1 70423C 25225B   25290.04701389 -.01515800  00000+0 -64545-2 0  2903",
                        "2 70423  53.1529 119.9931 0000885  71.4927  40.0742 15.86059296    16"
                    ]
                },
                {
                    "noradId": "70426",
                    "tle": [
                        "1 70426C 25225E   25290.05118056 -.01533900  00000+0 -65160-2 0  2905",
                        "2 70426  53.1527 119.9589 0001062  55.6052  85.8992 15.86127962    17"
                    ]
                },
                {
                    "noradId": "70425",
                    "tle": [
                        "1 70425C 25225D   25290.05118056 -.01531400  00000+0 -65140-2 0  2905",
                        "2 70425  53.1527 119.9619 0000912  62.5701  77.0979 15.86098393    14"
                    ]
                },
                {
                    "noradId": "70422",
                    "tle": [
                        "1 70422C 25225A   25290.04840278 -.01510000  00000+0 -64409-2 0  2909",
                        "2 70422  53.1528 119.9892 0000849  70.6799  47.0758 15.86017447    14"
                    ]
                }
            ]
        }
    ],
    "config": {}
}